[{"OBJECT_NAME":"KUIPER-00176","OBJECT_ID":"2025-217AC","EPOCH":"2026-03-09T22:52:35.140800","MEAN_MOTION":14.7992947,"ECCENTRICITY":6.934e-5,"INCLINATION":51.9002,"RA_OF_ASC_NODE":41.9321,"ARG_OF_PERICENTER":103.7667,"MEAN_ANOMALY":256.3372,"EPHEMERIS_TYPE":0,"CLASSIFICATION_TYPE":"U","NORAD_CAT_ID":65788,"ELEMENT_SET_NO":999,"REV_AT_EPOCH":2491,"BSTAR":0.00055994201,"MEAN_MOTION_DOT":4.05e-5,"MEAN_MOTION_DDOT":0},{"OBJECT_NAME":"ATLAS 41E DEB","OBJECT_ID":"1985-021D","EPOCH":"2026-03-09T11:14:30.384672","MEAN_MOTION":14.78279373,"ECCENTRICITY":0.00100569,"INCLINATION":108.2273,"RA_OF_ASC_NODE":276.5047,"ARG_OF_PERICENTER":106.2098,"MEAN_ANOMALY":254.017,"EPHEMERIS_TYPE":0,"CLASSIFICATION_TYPE":"U","NORAD_CAT_ID":15614,"ELEMENT_SET_NO":999,"REV_AT_EPOCH":18194,"BSTAR":0.00033343868,"MEAN_MOTION_DOT":2.25e-5,"MEAN_MOTION_DDOT":0}]
